{
    "links": {
        "self": "http://www.neowsapp.com/rest/v1/neo/3428534?api_key=iIulBulltgU6a56xZRHN4H3l9WmuAYTsLGpBGhQ2"
    },
    "id": "3428534",
    "neo_reference_id": "3428534",
    "name": "(2008 TB)",
    "designation": "2008 TB",
    "nasa_jpl_url": "http://ssd.jpl.nasa.gov/sbdb.cgi?sstr=3428534",
    "absolute_magnitude_h": 25.4,
    "estimated_diameter": {
        "kilometers": {
            "estimated_diameter_min": 0.022108281,
            "estimated_diameter_max": 0.0494356193
        },
        "meters": {
            "estimated_diameter_min": 22.1082810359,
            "estimated_diameter_max": 49.435619262
        },
        "miles": {
            "estimated_diameter_min": 0.0137374447,
            "estimated_diameter_max": 0.0307178602
        },
        "feet": {
            "estimated_diameter_min": 72.5337327539,
            "estimated_diameter_max": 162.1903570994
        }
    },
    "is_potentially_hazardous_asteroid": false,
    "close_approach_data": [
        {
            "close_approach_date": "2008-10-02",
            "close_approach_date_full": "2008-Oct-02 20:49",
            "epoch_date_close_approach": 1222980540000,
            "relative_velocity": {
                "kilometers_per_second": "17.9460952465",
                "kilometers_per_hour": "64605.942887449",
                "miles_per_hour": "40143.6204569263"
            },
            "miss_distance": {
                "astronomical": "0.0286883684",
                "lunar": "11.1597753076",
                "kilometers": "4291718.806415308",
                "miles": "2666750.4074469304"
            },
            "orbiting_body": "Earth"
        }
    ],
    "orbital_data": {
        "orbit_id": "7",
        "orbit_determination_date": "2017-04-06 09:02:47",
        "first_observation_date": "2008-10-01",
        "last_observation_date": "2008-10-02",
        "data_arc_in_days": 1,
        "observations_used": 33,
        "orbit_uncertainty": "8",
        "minimum_orbit_intersection": ".0257195",
        "jupiter_tisserand_invariant": "3.076",
        "epoch_osculation": "2454740.5",
        "eccentricity": ".604468317670706",
        "semi_major_axis": "2.47719421250489",
        "inclination": "27.40860731110173",
        "ascending_node_longitude": "188.0836036141619",
        "orbital_period": "1424.09352531001",
        "perihelion_distance": ".97980879432845",
        "perihelion_argument": "209.1007700247625",
        "aphelion_distance": "3.974579630681331",
        "perihelion_time": "2454764.646609776955",
        "mean_anomaly": "353.8959209032205",
        "mean_motion": ".2527923858944811",
        "equinox": "J2000",
        "orbit_class": {
            "orbit_class_type": "APO",
            "orbit_class_description": "Near-Earth asteroid orbits which cross the Earth’s orbit similar to that of 1862 Apollo",
            "orbit_class_range": "a (semi-major axis) > 1.0 AU; q (perihelion) < 1.017 AU"
        }
    },
    "is_sentry_object": false
}